NORAD_CAT_ID,OBJECT_NAME,OBJECT_TYPE,EPOCH,MEAN_MOTION,ECCENTRICITY,INCLINATION,RA_OF_ASC_NODE,ARG_OF_PERICENTER,MEAN_ANOMALY,BSTAR,MEAN_MOTION_DOT,MEAN_MOTION_DDOT,TLE_LINE0,TLE_LINE1,TLE_LINE2,SEMIMAJOR_AXIS,PERIOD,APOGEE,PERIGEE,DECAYED
53417.0,STARLINK-4484,PAYLOAD,2023-09-06 12:21:10,15.08844576,0.0001409,53.2156,262.5015,92.2483,267.867,0.00014713,2.055e-05,0.0,0 STARLINK-4484,1 53417U 22097AF  23249.51471037  .00002055  00000-0  14713-3 0  9999,2 53417  53.2156 262.5015 0001409  92.2483 267.8670 15.08844576 60467,6917.866,95.437,540.706,538.757,0.0
53417.0,STARLINK-4484,PAYLOAD,2023-09-07 10:36:36,15.088147,0.000143,53.217,258.3369,93.1201,266.9955,0.00028359,4.225e-05,0.0,0 STARLINK-4484,1 53417U 22097AF  23250.44208819  .00004225  00000-0  28359-3 0  9991,2 53417  53.2170 258.3369 0001430  93.1201 266.9955 15.08814700 60147,6917.958,95.439,540.812,538.833,0.0
53417.0,STARLINK-4484,PAYLOAD,2023-09-08 07:16:35,15.08837889,0.00015,53.2166,254.4717,91.0778,269.0386,0.00011559,1.552e-05,0.0,0 STARLINK-4484,1 53417U 22097AF  23251.30319443  .00001552  00000-0  11559-3 0  9997,2 53417  53.2166 254.4717 0001500  91.0778 269.0386 15.08837889 60279,6917.887,95.438,540.79,538.714,0.0
53417.0,STARLINK-4484,PAYLOAD,2023-09-08 12:02:45,15.08840781,0.0001474,53.2165,253.5791,93.1601,266.956,0.00013278,1.826e-05,0.0,0 STARLINK-4484,1 53417U 22097AF  23251.50191230  .00001826  00000-0  13278-3 0  9995,2 53417  53.2165 253.5791 0001474  93.1601 266.9560 15.08840781 60767,6917.878,95.438,540.763,538.723,0.0
53417.0,STARLINK-4484,PAYLOAD,2023-09-08 16:48:55,15.08830906,0.0001561,53.2164,252.6876,87.3293,272.7877,4.9021e-05,4.92e-06,0.0,0 STARLINK-4484,1 53417U 22097AF  23251.70064214  .00000492  00000-0  49021-4 0  9992,2 53417  53.2164 252.6876 0001561  87.3293 272.7877 15.08830906 60336,6917.908,95.438,540.853,538.693,0.0
53417.0,STARLINK-4484,PAYLOAD,2023-09-09 07:07:23,15.08839903,0.0001397,53.2165,250.0116,88.4332,271.682,7.512e-05,9.08e-06,0.0,0 STARLINK-4484,1 53417U 22097AF  23252.29679775  .00000908  00000-0  75120-4 0  9992,2 53417  53.2165 250.0116 0001397  88.4332 271.6820 15.08839903 60421,6917.881,95.438,540.712,538.779,0.0
53417.0,STARLINK-4484,PAYLOAD,2023-09-10 00:36:38,15.08838215,0.0001415,53.2165,246.7409,97.2728,262.8425,-1.3092e-05,-4.96e-06,0.0,0 STARLINK-4484,1 53417U 22097AF  23253.02544311 -.00000496  00000-0 -13092-4 0  9995,2 53417  53.2165 246.7409 0001415  97.2728 262.8425 15.08838215 60536,6917.886,95.438,540.73,538.772,0.0
53417.0,STARLINK-4484,PAYLOAD,2023-09-10 06:58:10,15.08838691,0.0001397,53.2165,245.5514,90.6236,269.4916,-5.9767e-06,-3.83e-06,0.0,0 STARLINK-4484,1 53417U 22097AF  23253.29040339 -.00000383  00000-0 -59767-5 0  9990,2 53417  53.2165 245.5514 0001397  90.6236 269.4916 15.08838691 61032,6917.884,95.438,540.716,538.783,0.0
53417.0,STARLINK-4484,PAYLOAD,2023-09-11 06:48:57,15.08842824,0.0001446,53.2169,241.0916,91.0055,269.1103,8.2802e-05,1.03e-05,0.0,0 STARLINK-4484,1 53417U 22097AF  23254.28400041  .00001030  00000-0  82802-4 0  9993,2 53417  53.2169 241.0916 0001446  91.0055 269.1103 15.08842824 60725,6917.872,95.437,540.737,538.736,0.0
53417.0,STARLINK-4484,PAYLOAD,2023-09-11 22:42:49,15.08836054,0.0001437,53.2163,238.1166,86.8237,273.2919,9.7878e-05,1.27e-05,0.0,0 STARLINK-4484,1 53417U 22097AF  23254.94640522  .00001270  00000-0  97878-4 0  9991,2 53417  53.2163 238.1166 0001437  86.8237 273.2919 15.08836054 60827,6917.892,95.438,540.752,538.763,0.0
53417.0,STARLINK-4484,PAYLOAD,2023-09-12 06:39:44,15.08841327,0.0001399,53.216,236.6298,88.0364,272.0788,0.00011509,1.544e-05,0.0,0 STARLINK-4484,1 53417U 22097AF  23255.27760235  .00001544  00000-0  11509-3 0  9992,2 53417  53.2160 236.6298 0001399  88.0364 272.0788 15.08841327 61332,6917.876,95.437,540.709,538.774,0.0
53417.0,STARLINK-4484,PAYLOAD,2023-09-13 08:05:53,15.0885831,0.0001428,53.2164,231.8722,95.6793,264.4362,0.00017232,2.457e-05,0.0,0 STARLINK-4484,1 53417U 22097AF  23256.33742948  .00002457  00000-0  17232-3 0  9994,2 53417  53.2164 231.8722 0001428  95.6793 264.4362 15.08858310 61038,6917.824,95.436,540.677,538.702,0.0
53417.0,STARLINK-4484,PAYLOAD,2023-09-13 16:02:51,15.08836542,0.0001862,53.2145,230.3856,82.4137,277.7067,1.5847e-05,-3.6e-07,0.0,0 STARLINK-4484,1 53417U 22097AF  23256.66864626 -.00000036  00000-0  15847-4 0  9991,2 53417  53.2145 230.3856 0001862  82.4137 277.7067 15.08836542 61084,6917.891,95.438,541.044,538.468,0.0
53417.0,STARLINK-4484,PAYLOAD,2023-09-14 04:45:56,15.08833082,0.000152,53.2157,228.0072,90.6756,269.4411,-1.1975e-05,-4.79e-06,0.0,0 STARLINK-4484,1 53417U 22097AF  23257.19856921 -.00000479  00000-0 -11975-4 0  9999,2 53417  53.2157 228.0072 0001520  90.6756 269.4411 15.08833082 61627,6917.902,95.438,540.818,538.715,0.0
53417.0,STARLINK-4484,PAYLOAD,2023-09-15 03:01:19,15.0884987,0.0001474,53.216,223.8432,96.6191,263.4969,0.00018423,2.646e-05,0.0,0 STARLINK-4484,1 53417U 22097AF  23258.12592194  .00002646  00000-0  18423-3 0  9992,2 53417  53.2160 223.8432 0001474  96.6191 263.4969 15.08849870 61300,6917.85,95.437,540.735,538.696,0.0
53417.0,STARLINK-4484,PAYLOAD,2023-09-15 04:36:42,15.0885028,0.0001497,53.2161,223.5455,96.3956,263.7206,0.00030424,4.559e-05,0.0,0 STARLINK-4484,1 53417U 22097AF  23258.19216280  .00004559  00000-0  30424-3 0  9998,2 53417  53.2161 223.5455 0001497  96.3956 263.7206 15.08850280 61779,6917.849,95.437,540.75,538.678,0.0
53417.0,STARLINK-4484,PAYLOAD,2023-09-16 02:52:07,15.08840223,0.0001556,53.2168,219.3835,97.3266,262.7903,0.000209,3.04e-05,0.0,0 STARLINK-4484,1 53417U 22097AF  23259.11952629  .00003040  00000-0  20900-3 0  9997,2 53417  53.2168 219.3835 0001556  97.3266 262.7903 15.08840223 61456,6917.88,95.438,540.821,538.668,0.0
53417.0,STARLINK-4484,PAYLOAD,2023-09-16 06:02:53,15.08842878,0.0001613,53.217,218.791,101.0152,259.1022,0.00019921,2.884e-05,0.0,0 STARLINK-4484,1 53417U 22097AF  23259.25200517  .00002884  00000-0  19921-3 0  9990,2 53417  53.2170 218.7910 0001613 101.0152 259.1022 15.08842878 61930,6917.872,95.437,540.852,538.621,0.0
53417.0,STARLINK-4484,PAYLOAD,2023-09-17 02:42:54,15.08836597,0.000143,53.2178,214.9266,93.9555,266.16,-2.0392e-05,-6.12e-06,0.0,0 STARLINK-4484,1 53417U 22097AF  23260.11313445 -.00000612  00000-0 -20392-4 0  9996,2 53417  53.2178 214.9266 0001430  93.9555 266.1600 15.08836597 61608,6917.891,95.438,540.745,538.767,0.0
53417.0,STARLINK-4484,PAYLOAD,2023-09-17 07:29:03,15.08840765,0.0001456,53.2171,214.0308,95.3346,264.7812,3.3086e-06,-2.35e-06,0.0,0 STARLINK-4484,1 53417U 22097AF  23260.31185100 -.00000235  00000-0  33086-5 0  9998,2 53417  53.2171 214.0308 0001456  95.3346 264.7812 15.08840765 62096,6917.878,95.438,540.75,538.736,0.0
53417.0,STARLINK-4484,PAYLOAD,2023-09-18 02:33:41,15.08847046,0.0001429,53.2168,210.4616,93.0789,267.0367,0.00015019,2.104e-05,0.0,0 STARLINK-4484,1 53417U 22097AF  23261.10672523  .00002104  00000-0  15019-3 0  9996,2 53417  53.2168 210.4616 0001429  93.0789 267.0367 15.08847046 61752,6917.859,95.437,540.712,538.735,0.0
53417.0,STARLINK-4484,PAYLOAD,2023-09-18 05:44:26,15.08853103,0.0001483,53.2171,209.8669,96.1198,263.9963,0.00021293,3.104e-05,0.0,0 STARLINK-4484,1 53417U 22097AF  23261.23920076  .00003104  00000-0  21293-3 0  9991,2 53417  53.2171 209.8669 0001483  96.1198 263.9963 15.08853103 62236,6917.84,95.437,540.731,538.679,0.0
53417.0,STARLINK-4484,PAYLOAD,2023-09-19 02:24:28,15.08845749,0.0001608,53.2164,205.9986,93.7397,266.3779,0.00018313,2.628e-05,0.0,0 STARLINK-4484,1 53417U 22097AF  23262.10032630  .00002628  00000-0  18313-3 0  9997,2 53417  53.2164 205.9986 0001608  93.7397 266.3779 15.08845749 61902,6917.863,95.437,540.84,538.615,0.0
53417.0,STARLINK-4484,PAYLOAD,2023-09-19 05:35:14,15.08852679,0.0001672,53.2161,205.4047,89.5757,270.5427,0.00028853,4.308e-05,0.0,0 STARLINK-4484,1 53417U 22097AF  23262.23280345  .00004308  00000-0  28853-3 0  9996,2 53417  53.2161 205.4047 0001672  89.5757 270.5427 15.08852679 61925,6917.842,95.437,540.863,538.55,0.0
53417.0,STARLINK-4484,PAYLOAD,2023-09-20 02:15:14,15.0884626,0.0001613,53.216,201.5382,111.5849,248.5315,5.5178e-05,5.9e-06,0.0,0 STARLINK-4484,1 53417U 22097AF  23263.09392121  .00000590  00000-0  55178-4 0  9997,2 53417  53.2160 201.5382 0001613 111.5849 248.5315 15.08846260 62051,6917.861,95.437,540.842,538.61,0.0
53417.0,STARLINK-4484,PAYLOAD,2023-09-20 13:22:57,15.08826985,0.0001607,53.217,199.4564,102.1626,257.9546,-0.00017465,-3.066e-05,0.0,0 STARLINK-4484,1 53417U 22097AF  23263.55761198 -.00003066  00000-0 -17465-3 0  9991,2 53417  53.2170 199.4564 0001607 102.1626 257.9546 15.08826985 62581,6917.92,95.438,540.897,538.673,0.0
53417.0,STARLINK-4484,PAYLOAD,2023-09-20 19:44:30,15.08826843,0.0001913,53.2162,198.2695,84.214,275.907,-0.00021627,-3.727e-05,0.0,0 STARLINK-4484,1 53417U 22097AF  23263.82257509 -.00003727  00000-0 -21627-3 0  9996,2 53417  53.2162 198.2695 0001913  84.2140 275.9070 15.08826843 62625,6917.921,95.438,541.109,538.462,0.0
53417.0,STARLINK-4484,PAYLOAD,2023-09-21 05:16:49,15.08826147,0.0001657,53.2166,196.4841,92.7251,267.3931,-8.4e-05,-1.624e-05,0.0,0 STARLINK-4484,1 53417U 22097AF  23264.22001940 -.00001624  00000-0 -84000-4 0  9996,2 53417  53.2166 196.4841 0001657  92.7251 267.3931 15.08826147 62688,6917.923,95.438,540.934,538.641,0.0
53417.0,STARLINK-4484,PAYLOAD,2023-09-22 01:56:50,15.08854808,0.0001538,53.2163,192.6205,100.3918,259.7247,0.00060391,9.34e-05,0.0,0 STARLINK-4484,1 53417U 22097AF  23265.08113480  .00009340  00000-0  60391-3 0  9991,2 53417  53.2163 192.6205 0001538 100.3918 259.7247 15.08854808 62355,6917.835,95.437,540.764,538.636,0.0
53417.0,STARLINK-4484,PAYLOAD,2023-09-22 05:07:36,15.08862889,0.0001524,53.2161,192.025,91.0704,269.0463,0.00089366,0.00013972,0.0,0 STARLINK-4484,1 53417U 22097AF  23265.21361397  .00013972  00000-0  89366-3 0  9997,2 53417  53.2161 192.0250 0001524  91.0704 269.0463 15.08862889 62836,6917.81,95.436,540.73,538.621,0.0
